start=new Date('2022-10-05T00:00:00.000Z').valueOf();
sats=[{"ARG_OF_PERICENTER":"91.6436","LAUNCH_DATE":"2021-03-11","MEAN_ELEMENT_THEORY":"SGP4","APOAPSIS":"548.144","CENTER_NAME":"EARTH","TLE_LINE2":"2 47831  53.0529  96.7040 0001345  91.6436 268.4707 15.06400199 88169","RA_OF_ASC_NODE":"96.7040","RCS_SIZE":"LARGE","OBJECT_NAME":"STARLINK-2420","MEAN_MOTION_DOT":"0.00001660","REF_FRAME":"TEME","ECCENTRICITY":"0.00013450","EPHEMERIS_TYPE":"0","CLASSIFICATION_TYPE":"U","INCLINATION":"53.0529","PERIAPSIS":"546.281","EPOCH":"2022-10-04T18:30:18.818496","GP_ID":"214190175","MEAN_MOTION":"15.06400199","SEMIMAJOR_AXIS":"6925.348","MEAN_ANOMALY":"268.4707","NORAD_CAT_ID":"47831","COUNTRY_CODE":"US","BSTAR":"0.00013033000000","ELEMENT_SET_NO":"999","PERIOD":"95.592","OBJECT_TYPE":"PAYLOAD","SITE":"AFETR","REV_AT_EPOCH":"8816","MEAN_MOTION_DDOT":"0.0000000000000","DECAY_DATE":null,"TIME_SYSTEM":"UTC","FILE":"3591597","TLE_LINE1":"1 47831U 21018AW  22277.77105114  .00001660  00000-0  13033-3 0  9997","OBJECT_ID":"2021-018AW"},{"ARG_OF_PERICENTER":"93.4840","LAUNCH_DATE":"2021-03-11","APOAPSIS":"548.004","MEAN_ELEMENT_THEORY":"SGP4","CENTER_NAME":"EARTH","REF_FRAME":"TEME","ECCENTRICITY":"0.00011670","TLE_LINE2":"2 47832  53.0540 113.9851 0001167  93.4840 266.6283 15.06405689 87826","RA_OF_ASC_NODE":"113.9851","MEAN_MOTION_DOT":"0.00001568","RCS_SIZE":"LARGE","OBJECT_NAME":"STARLINK-2422","CLASSIFICATION_TYPE":"U","PERIAPSIS":"546.388","INCLINATION":"53.0540","EPHEMERIS_TYPE":"0","MEAN_MOTION":"15.06405689","GP_ID":"214158038","EPOCH":"2022-10-04T06:18:30.377376","COUNTRY_CODE":"US","BSTAR":"0.00012411000000","ELEMENT_SET_NO":"999","NORAD_CAT_ID":"47832","PERIOD":"95.592","MEAN_ANOMALY":"266.6283","SEMIMAJOR_AXIS":"6925.331","REV_AT_EPOCH":"8782","MEAN_MOTION_DDOT":"0.0000000000000","TIME_SYSTEM":"UTC","DECAY_DATE":null,"OBJECT_TYPE":"PAYLOAD","SITE":"AFETR","FILE":"3591197","TLE_LINE1":"1 47832U 21018AX  22277.26285159  .00001568  00000-0  12411-3 0  9996","OBJECT_ID":"2021-018AX"},{"TLE_LINE1":"1 47833U 21018AY  22277.81942410  .00004762  00000-0  33827-3 0  9991","OBJECT_ID":"2021-018AY","FILE":"3591597","MEAN_MOTION_DDOT":"0.0000000000000","TIME_SYSTEM":"UTC","DECAY_DATE":null,"REV_AT_EPOCH":"8796","SITE":"AFETR","OBJECT_TYPE":"PAYLOAD","PERIOD":"95.591","NORAD_CAT_ID":"47833","COUNTRY_CODE":"US","BSTAR":"0.00033827000000","ELEMENT_SET_NO":"999","MEAN_ANOMALY":"270.1107","SEMIMAJOR_AXIS":"6925.315","MEAN_MOTION":"15.06410964","EPOCH":"2022-10-04T19:39:58.242240","GP_ID":"214190676","CLASSIFICATION_TYPE":"U","INCLINATION":"53.0525","PERIAPSIS":"545.555","EPHEMERIS_TYPE":"0","ECCENTRICITY":"0.00023470","REF_FRAME":"TEME","RA_OF_ASC_NODE":"111.4813","MEAN_MOTION_DOT":"0.00004762","RCS_SIZE":"LARGE","OBJECT_NAME":"STARLINK-2423","TLE_LINE2":"2 47833  53.0525 111.4813 0002347  90.0151 270.1107 15.06410964 87962","CENTER_NAME":"EARTH","MEAN_ELEMENT_THEORY":"SGP4","APOAPSIS":"548.805","LAUNCH_DATE":"2021-03-11","ARG_OF_PERICENTER":"90.0151"},{"SEMIMAJOR_AXIS":"6925.341","MEAN_ANOMALY":"268.4171","PERIOD":"95.592","COUNTRY_CODE":"US","ELEMENT_SET_NO":"999","BSTAR":"0.00021286000000","NORAD_CAT_ID":"47834","GP_ID":"214166910","EPOCH":"2022-10-04T19:55:54.119136","MEAN_MOTION":"15.06402603","TLE_LINE1":"1 47834U 21018AZ  22277.83048749  .00002891  00000-0  21286-3 0  9993","OBJECT_ID":"2021-018AZ","FILE":"3591441","SITE":"AFETR","OBJECT_TYPE":"PAYLOAD","MEAN_MOTION_DDOT":"0.0000000000000","DECAY_DATE":null,"TIME_SYSTEM":"UTC","REV_AT_EPOCH":"8757","CENTER_NAME":"EARTH","APOAPSIS":"548.145","MEAN_ELEMENT_THEORY":"SGP4","LAUNCH_DATE":"2021-03-11","ARG_OF_PERICENTER":"91.6974","EPHEMERIS_TYPE":"0","CLASSIFICATION_TYPE":"U","PERIAPSIS":"546.266","INCLINATION":"53.0537","RA_OF_ASC_NODE":"111.4349","RCS_SIZE":"LARGE","OBJECT_NAME":"STARLINK-2424","MEAN_MOTION_DOT":"0.00002891","TLE_LINE2":"2 47834  53.0537 111.4349 0001357  91.6974 268.4171 15.06402603 87579","ECCENTRICITY":"0.00013570","REF_FRAME":"TEME"},{"LAUNCH_DATE":"2021-03-11","ARG_OF_PERICENTER":"98.4958","CENTER_NAME":"EARTH","MEAN_ELEMENT_THEORY":"SGP4","APOAPSIS":"548.341","ECCENTRICITY":"0.00016220","REF_FRAME":"TEME","MEAN_MOTION_DOT":"0.00000298","RCS_SIZE":"LARGE","OBJECT_NAME":"STARLINK-2425","RA_OF_ASC_NODE":"116.4405","TLE_LINE2":"2 47835  53.0548 116.4405 0001622  98.4958 261.6215 15.06398569 87830","PERIAPSIS":"546.095","INCLINATION":"53.0548","CLASSIFICATION_TYPE":"U","EPHEMERIS_TYPE":"0","MEAN_MOTION":"15.06398569","GP_ID":"214189675","EPOCH":"2022-10-04T20:35:04.396128","PERIOD":"95.592","COUNTRY_CODE":"US","ELEMENT_SET_NO":"999","BSTAR":"0.00003892600000","NORAD_CAT_ID":"47835","MEAN_ANOMALY":"261.6215","SEMIMAJOR_AXIS":"6925.353","DECAY_DATE":null,"TIME_SYSTEM":"UTC","MEAN_MOTION_DDOT":"0.0000000000000","REV_AT_EPOCH":"8783","SITE":"AFETR","OBJECT_TYPE":"PAYLOAD","OBJECT_ID":"2021-018BA","TLE_LINE1":"1 47835U 21018BA  22277.85768977  .00000298  00000-0  38926-4 0  9997","FILE":"3591597"},{"SEMIMAJOR_AXIS":"6925.397","MEAN_ANOMALY":"270.3377","COUNTRY_CODE":"US","ELEMENT_SET_NO":"999","BSTAR":"0.00032809000000","NORAD_CAT_ID":"47836","PERIOD":"95.593","GP_ID":"214164665","EPOCH":"2022-10-04T20:22:28.187040","MEAN_MOTION":"15.06384323","FILE":"3591334","OBJECT_ID":"2021-018BB","TLE_LINE1":"1 47836U 21018BB  22277.84893735  .00004607  00000-0  32809-3 0  9999","OBJECT_TYPE":"PAYLOAD","SITE":"AFETR","REV_AT_EPOCH":"8757","DECAY_DATE":null,"TIME_SYSTEM":"UTC","MEAN_MOTION_DDOT":"0.0000000000000","MEAN_ELEMENT_THEORY":"SGP4","APOAPSIS":"548.237","CENTER_NAME":"EARTH","ARG_OF_PERICENTER":"89.7773","LAUNCH_DATE":"2021-03-11","EPHEMERIS_TYPE":"0","INCLINATION":"53.0544","PERIAPSIS":"546.287","CLASSIFICATION_TYPE":"U","TLE_LINE2":"2 47836  53.0544 111.4456 0001408  89.7773 270.3377 15.06384323 87578","MEAN_MOTION_DOT":"0.00004607","RCS_SIZE":"LARGE","OBJECT_NAME":"STARLINK-2426","RA_OF_ASC_NODE":"111.4456","REF_FRAME":"TEME","ECCENTRICITY":"0.00014080"},{"GP_ID":"214191177","EPOCH":"2022-10-04T19:00:10.298304","MEAN_MOTION":"15.06399480","MEAN_ANOMALY":"287.3361","SEMIMAJOR_AXIS":"6925.350","PERIOD":"95.592","BSTAR":"0.00014927000000","COUNTRY_CODE":"US","ELEMENT_SET_NO":"999","NORAD_CAT_ID":"47837","SITE":"AFETR","OBJECT_TYPE":"PAYLOAD","TIME_SYSTEM":"UTC","DECAY_DATE":null,"MEAN_MOTION_DDOT":"0.0000000000000","REV_AT_EPOCH":"8819","OBJECT_ID":"2021-018BC","TLE_LINE1":"1 47837U 21018BC  22277.79178586  .00001942  00000-0  14927-3 0  9994","FILE":"3591597","LAUNCH_DATE":"2021-03-11","ARG_OF_PERICENTER":"72.7799","CENTER_NAME":"EARTH","APOAPSIS":"548.297","MEAN_ELEMENT_THEORY":"SGP4","MEAN_MOTION_DOT":"0.00001942","RCS_SIZE":"LARGE","OBJECT_NAME":"STARLINK-2427","RA_OF_ASC_NODE":"91.6066","TLE_LINE2":"2 47837  53.0546  91.6066 0001562  72.7799 287.3361 15.06399480 88198","ECCENTRICITY":"0.00015620","REF_FRAME":"TEME","EPHEMERIS_TYPE":"0","PERIAPSIS":"546.133","INCLINATION":"53.0546","CLASSIFICATION_TYPE":"U"},{"REV_AT_EPOCH":"8790","MEAN_MOTION_DDOT":"0.0000000000000","DECAY_DATE":null,"TIME_SYSTEM":"UTC","OBJECT_TYPE":"PAYLOAD","SITE":"AFETR","FILE":"3591597","TLE_LINE1":"1 47838U 21018BD  22277.80469069  .00001026  00000-0  87788-4 0  9995","OBJECT_ID":"2021-018BD","MEAN_MOTION":"15.06402270","EPOCH":"2022-10-04T19:18:45.275616","GP_ID":"214190927","ELEMENT_SET_NO":"999","COUNTRY_CODE":"US","BSTAR":"0.00008778800000","NORAD_CAT_ID":"47838","PERIOD":"95.592","MEAN_ANOMALY":"287.0338","SEMIMAJOR_AXIS":"6925.342","REF_FRAME":"TEME","ECCENTRICITY":"0.00015020","TLE_LINE2":"2 47838  53.0536 111.5621 0001502  73.0815 287.0338 15.06402270 87905","RA_OF_ASC_NODE":"111.5621","RCS_SIZE":"MEDIUM","MEAN_MOTION_DOT":"0.00001026","OBJECT_NAME":"STARLINK-2429","CLASSIFICATION_TYPE":"U","PERIAPSIS":"546.166","INCLINATION":"53.0536","EPHEMERIS_TYPE":"0","ARG_OF_PERICENTER":"73.0815","LAUNCH_DATE":"2021-03-11","MEAN_ELEMENT_THEORY":"SGP4","APOAPSIS":"548.247","CENTER_NAME":"EARTH"},{"SITE":"AFETR","OBJECT_TYPE":"PAYLOAD","MEAN_MOTION_DDOT":"0.0000000000000","TIME_SYSTEM":"UTC","DECAY_DATE":null,"REV_AT_EPOCH":"8821","TLE_LINE1":"1 47839U 21018BE  22276.97073963  .00001216  00000-0  10053-3 0  9998","OBJECT_ID":"2021-018BE","FILE":"3591197","EPOCH":"2022-10-03T23:17:51.904032","GP_ID":"214157788","MEAN_MOTION":"15.06404328","SEMIMAJOR_AXIS":"6925.335","MEAN_ANOMALY":"277.9539","PERIOD":"95.592","COUNTRY_CODE":"US","NORAD_CAT_ID":"47839","BSTAR":"0.00010053000000","ELEMENT_SET_NO":"999","RA_OF_ASC_NODE":"85.2788","RCS_SIZE":"LARGE","OBJECT_NAME":"STARLINK-2431","MEAN_MOTION_DOT":"0.00001216","TLE_LINE2":"2 47839  53.0549  85.2788 0001240  82.1591 277.9539 15.06404328 88214","ECCENTRICITY":"0.00012400","REF_FRAME":"TEME","EPHEMERIS_TYPE":"0","CLASSIFICATION_TYPE":"U","PERIAPSIS":"546.342","INCLINATION":"53.0549","LAUNCH_DATE":"2021-03-11","ARG_OF_PERICENTER":"82.1591","CENTER_NAME":"EARTH","APOAPSIS":"548.059","MEAN_ELEMENT_THEORY":"SGP4"},{"MEAN_ANOMALY":"279.4999","SEMIMAJOR_AXIS":"6925.352","PERIOD":"95.592","COUNTRY_CODE":"US","BSTAR":"0.00014072000000","ELEMENT_SET_NO":"999","NORAD_CAT_ID":"47840","EPOCH":"2022-10-04T18:38:56.625792","GP_ID":"214190426","MEAN_MOTION":"15.06398844","OBJECT_ID":"2021-018BF","TLE_LINE1":"1 47840U 21018BF  22277.77704428  .00001815  00000-0  14072-3 0  9996","FILE":"3591597","SITE":"AFETR","OBJECT_TYPE":"PAYLOAD","TIME_SYSTEM":"UTC","DECAY_DATE":null,"MEAN_MOTION_DDOT":"0.0000000000000","REV_AT_EPOCH":"8818","CENTER_NAME":"EARTH","APOAPSIS":"548.113","MEAN_ELEMENT_THEORY":"SGP4","LAUNCH_DATE":"2021-03-11","ARG_OF_PERICENTER":"80.6137","EPHEMERIS_TYPE":"0","INCLINATION":"53.0529","PERIAPSIS":"546.321","CLASSIFICATION_TYPE":"U","RCS_SIZE":"LARGE","OBJECT_NAME":"STARLINK-2432","MEAN_MOTION_DOT":"0.00001815","RA_OF_ASC_NODE":"91.6818","TLE_LINE2":"2 47840  53.0529  91.6818 0001294  80.6137 279.4999 15.06398844 88185","ECCENTRICITY":"0.00012940","REF_FRAME":"TEME"}];
